ORBCOMM FM115           
1 41186U 15081H   25259.45283003  .00000600  00000+0  15100-3 0  9998
2 41186  46.9996 325.4516 0000641 211.4726 148.6123 14.62652285521133
ORBCOMM FM108           
1 41187U 15081J   25259.64061788  .00000606  00000+0  16634-3 0  9993
2 41187  47.0061  35.0332 0001941 358.7584   1.3297 14.58302662520143
ORBCOMM FM117           
1 41188U 15081K   25259.40132395  .00000628  00000+0  17101-3 0  9995
2 41188  47.0023  34.8955 0002402  13.9045 346.1906 14.58298556520159
ORBCOMM FM116           
1 41189U 15081L   25259.31731800  .00000697  00000+0  18539-3 0  9994
2 41189  47.0015 125.1035 0001949 232.5631 127.5077 14.58381496518950
